[{"OBJECT_NAME":"SCS-01 K","OBJECT_ID":"2025-100K","EPOCH":"2026-03-09T23:34:24.068928","MEAN_MOTION":15.20905927,"ECCENTRICITY":0.0009688,"INCLINATION":97.3704,"RA_OF_ASC_NODE":143.9421,"ARG_OF_PERICENTER":311.1464,"MEAN_ANOMALY":48.8935,"EPHEMERIS_TYPE":0,"CLASSIFICATION_TYPE":"U","NORAD_CAT_ID":63991,"ELEMENT_SET_NO":999,"REV_AT_EPOCH":4554,"BSTAR":0.00099261902,"MEAN_MOTION_DOT":0.00021955,"MEAN_MOTION_DDOT":0},{"OBJECT_NAME":"FENGYUN 1C DEB","OBJECT_ID":"1999-025QY","EPOCH":"2026-03-09T17:49:58.428768","MEAN_MOTION":14.85185603,"ECCENTRICITY":0.01589258,"INCLINATION":99.2245,"RA_OF_ASC_NODE":8.2998,"ARG_OF_PERICENTER":58.4769,"MEAN_ANOMALY":303.1855,"EPHEMERIS_TYPE":0,"CLASSIFICATION_TYPE":"U","NORAD_CAT_ID":30095,"ELEMENT_SET_NO":999,"REV_AT_EPOCH":624,"BSTAR":0.002192592,"MEAN_MOTION_DOT":0.0002358,"MEAN_MOTION_DDOT":0}]
